NORAD_CAT_ID,OBJECT_NAME,OBJECT_TYPE,EPOCH,MEAN_MOTION,ECCENTRICITY,INCLINATION,RA_OF_ASC_NODE,ARG_OF_PERICENTER,MEAN_ANOMALY,BSTAR,MEAN_MOTION_DOT,MEAN_MOTION_DDOT,TLE_LINE0,TLE_LINE1,TLE_LINE2,SEMIMAJOR_AXIS,PERIOD,APOGEE,PERIGEE,DECAYED
49431.0,STARLINK-3153,PAYLOAD,2023-06-10 18:40:53,15.08840576,0.0001272,53.2176,51.6209,92.2253,267.8885,-3.8003e-05,-8.93e-06,0.0,0 STARLINK-3153,1 49431U 21104Z   23161.77839760 -.00000893  00000-0 -38003-4 0  9999,2 49431  53.2176  51.6209 0001272  92.2253 267.8885 15.08840576 87222,6917.879,95.438,540.624,538.864,0.0
49431.0,STARLINK-3153,PAYLOAD,2023-06-10 23:27:02,15.08844558,0.0001173,53.2177,50.7307,81.713,278.3995,2.1962e-05,6.2e-07,0.0,0 STARLINK-3153,1 49431U 21104Z   23161.97711325  .00000062  00000-0  21962-4 0  9999,2 49431  53.2177  50.7307 0001173  81.7130 278.3995 15.08844558 88335,6917.866,95.437,540.543,538.92,0.0
49431.0,STARLINK-3153,PAYLOAD,2023-06-11 08:59:21,15.08840194,0.0001294,53.2176,48.9432,98.2372,261.8766,4.7496e-05,4.68e-06,0.0,0 STARLINK-3153,1 49431U 21104Z   23162.37455461  .00000468  00000-0  47496-4 0  9990,2 49431  53.2176  48.9432 0001294  98.2372 261.8766 15.08840194 87319,6917.88,95.438,540.64,538.85,0.0
49431.0,STARLINK-3153,PAYLOAD,2023-06-12 02:28:35,15.08843186,0.0001287,53.2179,45.6724,88.1275,271.9865,0.00010694,1.415e-05,0.0,0 STARLINK-3153,1 49431U 21104Z   23163.10319214  .00001415  00000-0  10694-3 0  9999,2 49431  53.2179  45.6724 0001287  88.1275 271.9865 15.08843186 88500,6917.871,95.437,540.626,538.845,0.0
49431.0,STARLINK-3153,PAYLOAD,2023-06-12 08:50:08,15.08841487,0.0001149,53.2173,44.4821,80.8352,279.277,7.8264e-05,9.58e-06,0.0,0 STARLINK-3153,1 49431U 21104Z   23163.36815332  .00000958  00000-0  78264-4 0  9998,2 49431  53.2173  44.4821 0001149  80.8352 279.2770 15.08841487 87463,6917.876,95.437,540.536,538.946,0.0
49431.0,STARLINK-3153,PAYLOAD,2023-06-12 18:22:28,15.08831201,0.0001302,53.2178,42.6998,88.0864,272.0278,-2.1167e-05,-6.25e-06,0.0,0 STARLINK-3153,1 49431U 21104Z   23163.76560482 -.00000625  00000-0 -21167-4 0  9998,2 49431  53.2178  42.6998 0001302  88.0864 272.0278 15.08831201 88606,6917.907,95.438,540.673,538.872,0.0
49431.0,STARLINK-3153,PAYLOAD,2023-06-12 23:08:37,15.08833682,9.4e-05,53.2186,41.81,95.1629,264.947,-1.0102e-05,-4.48e-06,0.0,0 STARLINK-3153,1 49431U 21104Z   23163.96432238 -.00000448  00000-0 -10102-4 0  9997,2 49431  53.2186  41.8100 0000940  95.1629 264.9470 15.08833682 87558,6917.9,95.438,540.415,539.114,0.0
49431.0,STARLINK-3153,PAYLOAD,2023-06-13 02:19:23,15.08835646,0.0001236,53.218,41.2128,79.3433,280.7698,-6.6472e-06,-3.94e-06,0.0,0 STARLINK-3153,1 49431U 21104Z   23164.09680109 -.00000394  00000-0 -66472-5 0  9996,2 49431  53.2180  41.2128 0001236  79.3433 280.7698 15.08835646 88654,6917.894,95.438,540.614,538.904,0.0
49431.0,STARLINK-3153,PAYLOAD,2023-06-13 13:27:05,15.08836166,0.0001135,53.2167,39.1327,95.2751,264.8371,6.2303e-05,7.04e-06,0.0,0 STARLINK-3153,1 49431U 21104Z   23164.56047934  .00000704  00000-0  62303-4 0  9992,2 49431  53.2167  39.1327 0001135  95.2751 264.8371 15.08836166 87641,6917.892,95.438,540.542,538.972,0.0
49431.0,STARLINK-3153,PAYLOAD,2023-06-13 15:02:28,15.08837141,0.0001108,53.2171,38.8349,86.8518,273.26,5.5874e-05,6.01e-06,0.0,0 STARLINK-3153,1 49431U 21104Z   23164.62671920  .00000601  00000-0  55874-4 0  9998,2 49431  53.2171  38.8349 0001108  86.8518 273.2600 15.08837141 87657,6917.889,95.438,540.521,538.988,0.0
49431.0,STARLINK-3153,PAYLOAD,2023-06-14 00:34:46,15.08849695,0.0001106,53.2169,37.0508,93.9723,266.1395,5.8465e-05,6.43e-06,0.0,0 STARLINK-3153,1 49431U 21104Z   23165.02415058  .00000643  00000-0  58465-4 0  9996,2 49431  53.2169  37.0508 0001106  93.9723 266.1395 15.08849695 88792,6917.851,95.437,540.481,538.951,0.0
49431.0,STARLINK-3153,PAYLOAD,2023-06-14 16:28:39,15.088315,0.000107,53.2179,34.0769,85.0768,275.0346,6.6954e-05,7.78e-06,0.0,0 STARLINK-3153,1 49431U 21104Z   23165.68656256  .00000778  00000-0  66954-4 0  9996,2 49431  53.2179  34.0769 0001070  85.0768 275.0346 15.08831500 88892,6917.906,95.438,540.512,539.031,0.0
49431.0,STARLINK-3153,PAYLOAD,2023-06-14 21:14:48,15.08832083,0.0001077,53.218,33.1848,85.9937,274.1178,6.369e-05,7.26e-06,0.0,0 STARLINK-3153,1 49431U 21104Z   23165.88528279  .00000726  00000-0  63690-4 0  9998,2 49431  53.2180  33.1848 0001077  85.9937 274.1178 15.08832083 87840,6917.905,95.438,540.515,539.025,0.0
49431.0,STARLINK-3153,PAYLOAD,2023-06-15 00:25:34,15.08836388,0.0001043,53.2177,32.5899,88.1218,271.9894,9.2894e-06,-1.4e-06,0.0,0 STARLINK-3153,1 49431U 21104Z   23166.01776197 -.00000140  00000-0  92894-5 0  9998,2 49431  53.2177  32.5899 0001043  88.1218 271.9894 15.08836388 87869,6917.891,95.438,540.478,539.035,0.0
49431.0,STARLINK-3153,PAYLOAD,2023-06-15 14:44:02,15.08839208,0.0001064,53.2172,29.913,92.4675,267.6439,2.5109e-06,-2.48e-06,0.0,0 STARLINK-3153,1 49431U 21104Z   23166.61392185 -.00000248  00000-0  25109-5 0  9999,2 49431  53.2172  29.9130 0001064  92.4675 267.6439 15.08839208 87951,6917.883,95.438,540.484,539.012,0.0
49431.0,STARLINK-3153,PAYLOAD,2023-06-16 00:16:21,15.08845025,0.000106,53.2171,28.1287,95.1502,264.9612,5.0439e-05,5.15e-06,0.0,0 STARLINK-3153,1 49431U 21104Z   23167.01135594  .00000515  00000-0  50439-4 0  9992,2 49431  53.2171  28.1287 0001060  95.1502 264.9612 15.08845025 89093,6917.865,95.437,540.463,538.997,0.0
49431.0,STARLINK-3153,PAYLOAD,2023-06-16 08:13:16,15.08838232,0.0001081,53.2173,26.6421,96.9427,263.1688,0.00022861,3.352e-05,0.0,0 STARLINK-3153,1 49431U 21104Z   23167.34255524  .00003352  00000-0  22861-3 0  9993,2 49431  53.2173  26.6421 0001081  96.9427 263.1688 15.08838232 88068,6917.886,95.438,540.499,539.003,0.0
49431.0,STARLINK-3153,PAYLOAD,2023-06-16 20:56:20,15.08853627,0.0001112,53.2174,24.2628,94.6077,265.5042,0.00020257,2.939e-05,0.0,0 STARLINK-3153,1 49431U 21104Z   23167.87246333  .00002939  00000-0  20257-3 0  9996,2 49431  53.2174  24.2628 0001112  94.6077 265.5042 15.08853627 88147,6917.839,95.437,540.473,538.934,0.0
49431.0,STARLINK-3153,PAYLOAD,2023-06-17 14:25:37,15.08833513,0.0001054,53.2173,20.9928,84.2803,275.8309,-5.0006e-05,-1.083e-05,0.0,0 STARLINK-3153,1 49431U 21104Z   23168.60112612 -.00001083  00000-0 -50006-4 0  9997,2 49431  53.2173  20.9928 0001054  84.2803 275.8309 15.08833513 89333,6917.9,95.438,540.494,539.036,0.0
49431.0,STARLINK-3153,PAYLOAD,2023-06-17 20:47:10,15.08824452,9.77e-05,53.2182,19.803,75.0485,285.0615,-0.00013695,-2.466e-05,0.0,0 STARLINK-3153,1 49431U 21104Z   23168.86609615 -.00002466  00000-0 -13695-3 0  9997,2 49431  53.2182  19.8030 0000977  75.0485 285.0615 15.08824452 88290,6917.928,95.439,540.469,539.117,0.0
49431.0,STARLINK-3153,PAYLOAD,2023-06-17 23:57:56,15.08825406,9.66e-05,53.2183,19.2078,75.2901,284.8198,-0.00013548,-2.442e-05,0.0,0 STARLINK-3153,1 49431U 21104Z   23168.99857633 -.00002442  00000-0 -13548-3 0  9997,2 49431  53.2183  19.2078 0000966  75.2901 284.8198 15.08825406 89395,6917.925,95.438,540.458,539.122,0.0
49431.0,STARLINK-3153,PAYLOAD,2023-06-18 17:27:10,15.08839806,9.59e-05,53.2186,15.9375,74.1884,285.9213,-3.9377e-05,-9.14e-06,0.0,0 STARLINK-3153,1 49431U 21104Z   23169.72720763 -.00000914  00000-0 -39377-4 0  9993,2 49431  53.2186  15.9375 0000959  74.1884 285.9213 15.08839806 89503,6917.881,95.438,540.409,539.083,0.0
49431.0,STARLINK-3153,PAYLOAD,2023-06-18 20:37:56,15.0884239,9.38e-05,53.2184,15.343,73.1489,286.9606,-7.3981e-06,-4.05e-06,0.0,0 STARLINK-3153,1 49431U 21104Z   23169.85968493 -.00000405  00000-0 -73981-5 0  9996,2 49431  53.2184  15.3430 0000938  73.1489 286.9606 15.08842390 88445,6917.873,95.437,540.387,539.089,0.0
49431.0,STARLINK-3153,PAYLOAD,2023-06-19 09:21:01,15.0883148,0.0001011,53.2179,12.9646,60.3534,299.7559,0.00026556,3.94e-05,0.0,0 STARLINK-3153,1 49431U 21104Z   23170.38960643  .00003940  00000-0  26556-3 0  9994,2 49431  53.2179  12.9646 0001011  60.3534 299.7559 15.08831480 88529,6917.906,95.438,540.471,539.072,0.0
49431.0,STARLINK-3153,PAYLOAD,2023-06-19 20:28:43,15.08845385,0.0001009,53.2178,10.8833,61.1802,298.9292,0.00038209,5.799e-05,0.0,0 STARLINK-3153,1 49431U 21104Z   23170.85328018  .00005799  00000-0  38209-3 0  9992,2 49431  53.2178  10.8833 0001009  61.1802 298.9292 15.08845385 88598,6917.864,95.437,540.427,539.031,0.0
49431.0,STARLINK-3153,PAYLOAD,2023-06-19 23:39:29,15.08854816,0.0001064,53.2169,10.2884,60.0966,300.0132,0.00048795,7.489e-05,0.0,0 STARLINK-3153,1 49431U 21104Z   23170.98576129  .00007489  00000-0  48795-3 0  9993,2 49431  53.2169  10.2884 0001064  60.0966 300.0132 15.08854816 89697,6917.835,95.437,540.436,538.964,0.0
49431.0,STARLINK-3153,PAYLOAD,2023-06-20 06:01:02,15.08851574,9.85e-05,53.2161,9.0958,36.8001,323.3058,0.00025661,3.8e-05,0.0,0 STARLINK-3153,1 49431U 21104Z   23171.25072210  .00003800  00000-0  25661-3 0  9996,2 49431  53.2161   9.0958 0000985  36.8001 323.3058 15.08851574 89737,6917.845,95.437,540.391,539.029,0.0
49431.0,STARLINK-3153,PAYLOAD,2023-06-20 17:08:44,15.08843252,9.1e-05,53.2169,7.0177,77.8696,282.2398,-4.9584e-05,-1.077e-05,0.0,0 STARLINK-3153,1 49431U 21104Z   23171.71440377 -.00001077  00000-0 -49584-4 0  9997,2 49431  53.2169   7.0177 0000910  77.8696 282.2398 15.08843252 89801,6917.87,95.437,540.365,539.106,0.0
49431.0,STARLINK-3153,PAYLOAD,2023-06-20 20:19:30,15.08848205,9.24e-05,53.217,6.423,78.1891,281.9205,6.9716e-05,8.22e-06,0.0,0 STARLINK-3153,1 49431U 21104Z   23171.84688212  .00000822  00000-0  69716-4 0  9997,2 49431  53.2170   6.4230 0000924  78.1891 281.9205 15.08848205 88740,6917.855,95.437,540.36,539.081,0.0
49431.0,STARLINK-3153,PAYLOAD,2023-06-20 21:54:53,15.08849831,8.92e-05,53.217,6.1258,74.0953,286.0137,0.00011567,1.554e-05,0.0,0 STARLINK-3153,1 49431U 21104Z   23171.91312097  .00001554  00000-0  11567-3 0  9993,2 49431  53.2170   6.1258 0000892  74.0953 286.0137 15.08849831 89832,6917.85,95.437,540.332,539.098,0.0
